<?xml version="1.0" encoding="UTF-8"?>
<kml xmlns="http://www.opengis.net/kml/2.2">
  <Document>
    <name>MultiNav Walking Routes</name>
    <description/>
    <Style id="icon-1603-9C27B0-normal">
      <IconStyle>
        <color>ffb0279c</color>
        <scale>1</scale>
        <Icon>
          <href>https://www.gstatic.com/mapspro/images/stock/503-wht-blank_maps.png</href>
        </Icon>
      </IconStyle>
      <LabelStyle>
        <scale>0</scale>
      </LabelStyle>
    </Style>
    <Style id="icon-1603-9C27B0-highlight">
      <IconStyle>
        <color>ffb0279c</color>
        <scale>1</scale>
        <Icon>
          <href>https://www.gstatic.com/mapspro/images/stock/503-wht-blank_maps.png</href>
        </Icon>
      </IconStyle>
      <LabelStyle>
        <scale>1</scale>
      </LabelStyle>
    </Style>
    <StyleMap id="icon-1603-9C27B0">
      <Pair>
        <key>normal</key>
        <styleUrl>#icon-1603-9C27B0-normal</styleUrl>
      </Pair>
      <Pair>
        <key>highlight</key>
        <styleUrl>#icon-1603-9C27B0-highlight</styleUrl>
      </Pair>
    </StyleMap>
    <Style id="icon-1603-9C27B0-nodesc-normal">
      <IconStyle>
        <color>ffb0279c</color>
        <scale>1</scale>
        <Icon>
          <href>https://www.gstatic.com/mapspro/images/stock/503-wht-blank_maps.png</href>
        </Icon>
      </IconStyle>
      <LabelStyle>
        <scale>0</scale>
      </LabelStyle>
      <BalloonStyle>
        <text><![CDATA[<h3>$[name]</h3>]]></text>
      </BalloonStyle>
    </Style>
    <Style id="icon-1603-9C27B0-nodesc-highlight">
      <IconStyle>
        <color>ffb0279c</color>
        <scale>1</scale>
        <Icon>
          <href>https://www.gstatic.com/mapspro/images/stock/503-wht-blank_maps.png</href>
        </Icon>
      </IconStyle>
      <LabelStyle>
        <scale>1</scale>
      </LabelStyle>
      <BalloonStyle>
        <text><![CDATA[<h3>$[name]</h3>]]></text>
      </BalloonStyle>
    </Style>
    <StyleMap id="icon-1603-9C27B0-nodesc">
      <Pair>
        <key>normal</key>
        <styleUrl>#icon-1603-9C27B0-nodesc-normal</styleUrl>
      </Pair>
      <Pair>
        <key>highlight</key>
        <styleUrl>#icon-1603-9C27B0-nodesc-highlight</styleUrl>
      </Pair>
    </StyleMap>
    <Style id="icon-1899-0288D1-normal">
      <IconStyle>
        <color>ffd18802</color>
        <scale>1</scale>
        <Icon>
          <href>https://www.gstatic.com/mapspro/images/stock/503-wht-blank_maps.png</href>
        </Icon>
        <hotSpot x="32" xunits="pixels" y="64" yunits="insetPixels"/>
      </IconStyle>
      <LabelStyle>
        <scale>0</scale>
      </LabelStyle>
    </Style>
    <Style id="icon-1899-0288D1-highlight">
      <IconStyle>
        <color>ffd18802</color>
        <scale>1</scale>
        <Icon>
          <href>https://www.gstatic.com/mapspro/images/stock/503-wht-blank_maps.png</href>
        </Icon>
        <hotSpot x="32" xunits="pixels" y="64" yunits="insetPixels"/>
      </IconStyle>
      <LabelStyle>
        <scale>1</scale>
      </LabelStyle>
    </Style>
    <StyleMap id="icon-1899-0288D1">
      <Pair>
        <key>normal</key>
        <styleUrl>#icon-1899-0288D1-normal</styleUrl>
      </Pair>
      <Pair>
        <key>highlight</key>
        <styleUrl>#icon-1899-0288D1-highlight</styleUrl>
      </Pair>
    </StyleMap>
    <Style id="icon-1899-0288D1-nodesc-normal">
      <IconStyle>
        <color>ffd18802</color>
        <scale>1</scale>
        <Icon>
          <href>https://www.gstatic.com/mapspro/images/stock/503-wht-blank_maps.png</href>
        </Icon>
        <hotSpot x="32" xunits="pixels" y="64" yunits="insetPixels"/>
      </IconStyle>
      <LabelStyle>
        <scale>0</scale>
      </LabelStyle>
      <BalloonStyle>
        <text><![CDATA[<h3>$[name]</h3>]]></text>
      </BalloonStyle>
    </Style>
    <Style id="icon-1899-0288D1-nodesc-highlight">
      <IconStyle>
        <color>ffd18802</color>
        <scale>1</scale>
        <Icon>
          <href>https://www.gstatic.com/mapspro/images/stock/503-wht-blank_maps.png</href>
        </Icon>
        <hotSpot x="32" xunits="pixels" y="64" yunits="insetPixels"/>
      </IconStyle>
      <LabelStyle>
        <scale>1</scale>
      </LabelStyle>
      <BalloonStyle>
        <text><![CDATA[<h3>$[name]</h3>]]></text>
      </BalloonStyle>
    </Style>
    <StyleMap id="icon-1899-0288D1-nodesc">
      <Pair>
        <key>normal</key>
        <styleUrl>#icon-1899-0288D1-nodesc-normal</styleUrl>
      </Pair>
      <Pair>
        <key>highlight</key>
        <styleUrl>#icon-1899-0288D1-nodesc-highlight</styleUrl>
      </Pair>
    </StyleMap>
    <Style id="icon-1899-DB4436-nodesc-normal">
      <IconStyle>
        <color>ff3644db</color>
        <scale>1</scale>
        <Icon>
          <href>https://www.gstatic.com/mapspro/images/stock/503-wht-blank_maps.png</href>
        </Icon>
        <hotSpot x="32" xunits="pixels" y="64" yunits="insetPixels"/>
      </IconStyle>
      <LabelStyle>
        <scale>0</scale>
      </LabelStyle>
      <BalloonStyle>
        <text><![CDATA[<h3>$[name]</h3>]]></text>
      </BalloonStyle>
    </Style>
    <Style id="icon-1899-DB4436-nodesc-highlight">
      <IconStyle>
        <color>ff3644db</color>
        <scale>1</scale>
        <Icon>
          <href>https://www.gstatic.com/mapspro/images/stock/503-wht-blank_maps.png</href>
        </Icon>
        <hotSpot x="32" xunits="pixels" y="64" yunits="insetPixels"/>
      </IconStyle>
      <LabelStyle>
        <scale>1</scale>
      </LabelStyle>
      <BalloonStyle>
        <text><![CDATA[<h3>$[name]</h3>]]></text>
      </BalloonStyle>
    </Style>
    <StyleMap id="icon-1899-DB4436-nodesc">
      <Pair>
        <key>normal</key>
        <styleUrl>#icon-1899-DB4436-nodesc-normal</styleUrl>
      </Pair>
      <Pair>
        <key>highlight</key>
        <styleUrl>#icon-1899-DB4436-nodesc-highlight</styleUrl>
      </Pair>
    </StyleMap>
    <Style id="line-1267FF-5000-nodesc-normal">
      <LineStyle>
        <color>ffff6712</color>
        <width>5</width>
      </LineStyle>
      <BalloonStyle>
        <text><![CDATA[<h3>$[name]</h3>]]></text>
      </BalloonStyle>
    </Style>
    <Style id="line-1267FF-5000-nodesc-highlight">
      <LineStyle>
        <color>ffff6712</color>
        <width>7.5</width>
      </LineStyle>
      <BalloonStyle>
        <text><![CDATA[<h3>$[name]</h3>]]></text>
      </BalloonStyle>
    </Style>
    <StyleMap id="line-1267FF-5000-nodesc">
      <Pair>
        <key>normal</key>
        <styleUrl>#line-1267FF-5000-nodesc-normal</styleUrl>
      </Pair>
      <Pair>
        <key>highlight</key>
        <styleUrl>#line-1267FF-5000-nodesc-highlight</styleUrl>
      </Pair>
    </StyleMap>
    <Style id="poly-000000-1200-77-nodesc-normal">
      <LineStyle>
        <color>ff000000</color>
        <width>1.2</width>
      </LineStyle>
      <PolyStyle>
        <color>4d000000</color>
        <fill>1</fill>
        <outline>1</outline>
      </PolyStyle>
      <BalloonStyle>
        <text><![CDATA[<h3>$[name]</h3>]]></text>
      </BalloonStyle>
    </Style>
    <Style id="poly-000000-1200-77-nodesc-highlight">
      <LineStyle>
        <color>ff000000</color>
        <width>1.8</width>
      </LineStyle>
      <PolyStyle>
        <color>4d000000</color>
        <fill>1</fill>
        <outline>1</outline>
      </PolyStyle>
      <BalloonStyle>
        <text><![CDATA[<h3>$[name]</h3>]]></text>
      </BalloonStyle>
    </Style>
    <StyleMap id="poly-000000-1200-77-nodesc">
      <Pair>
        <key>normal</key>
        <styleUrl>#poly-000000-1200-77-nodesc-normal</styleUrl>
      </Pair>
      <Pair>
        <key>highlight</key>
        <styleUrl>#poly-000000-1200-77-nodesc-highlight</styleUrl>
      </Pair>
    </StyleMap>
    <Folder>
      <name>Possible Intersections</name>
      <Placemark>
        <name>Intersection #3</name>
        <styleUrl>#icon-1899-0288D1-nodesc</styleUrl>
        <Point>
          <coordinates>
            -70.2789204,43.6617267,0
          </coordinates>
        </Point>
      </Placemark>
      <Placemark>
        <name>Uncontrolled T</name>
        <styleUrl>#icon-1899-0288D1-nodesc</styleUrl>
        <Point>
          <coordinates>
            -70.2770183,43.6630894,0
          </coordinates>
        </Point>
      </Placemark>
      <Placemark>
        <name>Intersection #4</name>
        <styleUrl>#icon-1899-0288D1-nodesc</styleUrl>
        <Point>
          <coordinates>
            -70.2746121,43.6647489,0
          </coordinates>
        </Point>
      </Placemark>
      <Placemark>
        <name>4way with multilane and 1 way</name>
        <description>check for APS</description>
        <styleUrl>#icon-1899-0288D1</styleUrl>
        <Point>
          <coordinates>
            -70.2655058,43.6556451,0
          </coordinates>
        </Point>
      </Placemark>
      <Placemark>
        <name>4way with offshoot</name>
        <description>need to check APS</description>
        <styleUrl>#icon-1899-0288D1</styleUrl>
        <Point>
          <coordinates>
            -70.2631571,43.6539616,0
          </coordinates>
        </Point>
      </Placemark>
      <Placemark>
        <name>MultiLeg</name>
        <styleUrl>#icon-1899-0288D1-nodesc</styleUrl>
        <Point>
          <coordinates>
            -70.2571383,43.654782,0
          </coordinates>
        </Point>
      </Placemark>
      <Placemark>
        <name>stop sign controlled 4way</name>
        <styleUrl>#icon-1899-0288D1-nodesc</styleUrl>
        <Point>
          <coordinates>
            -70.2559367,43.655335,0
          </coordinates>
        </Point>
      </Placemark>
      <Placemark>
        <name>MultiLane with islands</name>
        <styleUrl>#icon-1899-0288D1-nodesc</styleUrl>
        <Point>
          <coordinates>
            -70.2508767,43.6588115,0
          </coordinates>
        </Point>
      </Placemark>
      <Placemark>
        <name>Uncontrolled</name>
        <styleUrl>#icon-1899-0288D1-nodesc</styleUrl>
        <Point>
          <coordinates>
            -70.2548732,43.659252,0
          </coordinates>
        </Point>
      </Placemark>
      <Placemark>
        <name>Uncontrolled</name>
        <styleUrl>#icon-1899-0288D1-nodesc</styleUrl>
        <Point>
          <coordinates>
            -70.2541651,43.6588134,0
          </coordinates>
        </Point>
      </Placemark>
      <Placemark>
        <name>Uncontrolled</name>
        <styleUrl>#icon-1899-0288D1-nodesc</styleUrl>
        <Point>
          <coordinates>
            -70.2533979,43.6583749,0
          </coordinates>
        </Point>
      </Placemark>
      <Placemark>
        <name>Home Base? </name>
        <description>Umaine building</description>
        <styleUrl>#icon-1603-9C27B0</styleUrl>
        <Point>
          <coordinates>
            -70.2511095,43.6576673,0
          </coordinates>
        </Point>
      </Placemark>
      <Placemark>
        <name>Uncontrolled</name>
        <styleUrl>#icon-1899-0288D1-nodesc</styleUrl>
        <Point>
          <coordinates>
            -70.2526451,43.6566645,0
          </coordinates>
        </Point>
      </Placemark>
      <Placemark>
        <name>Uncontrolled</name>
        <styleUrl>#icon-1899-0288D1-nodesc</styleUrl>
        <Point>
          <coordinates>
            -70.2533398,43.656483,0
          </coordinates>
        </Point>
      </Placemark>
      <Placemark>
        <name>Fully actuated?</name>
        <description>All crosswalks at the same time</description>
        <styleUrl>#icon-1899-0288D1</styleUrl>
        <Point>
          <coordinates>
            -70.2550973,43.655668,0
          </coordinates>
        </Point>
      </Placemark>
      <Placemark>
        <name>Controlled?</name>
        <description>not sure of crossing </description>
        <styleUrl>#icon-1899-0288D1</styleUrl>
        <Point>
          <coordinates>
            -70.2581228,43.6556603,0
          </coordinates>
        </Point>
      </Placemark>
      <Placemark>
        <name>Possible test area</name>
        <styleUrl>#poly-000000-1200-77-nodesc</styleUrl>
        <Polygon>
          <outerBoundaryIs>
            <LinearRing>
              <tessellate>1</tessellate>
              <coordinates>
                -70.2670831,43.6559236,0
                -70.2625985,43.652772,0
                -70.26056,43.6542624,0
                -70.2655596,43.6570879,0
                -70.2670831,43.6559236,0
              </coordinates>
            </LinearRing>
          </outerBoundaryIs>
        </Polygon>
      </Placemark>
      <Placemark>
        <name>Uncontrolled T</name>
        <styleUrl>#icon-1899-0288D1-nodesc</styleUrl>
        <Point>
          <coordinates>
            -70.2777034,43.6607169,0
          </coordinates>
        </Point>
      </Placemark>
      <Placemark>
        <name>Start Area?</name>
        <styleUrl>#icon-1603-9C27B0-nodesc</styleUrl>
        <Point>
          <coordinates>
            -70.2760111,43.6617731,0
          </coordinates>
        </Point>
      </Placemark>
      <Placemark>
        <name>possible intersection</name>
        <styleUrl>#poly-000000-1200-77-nodesc</styleUrl>
        <Polygon>
          <outerBoundaryIs>
            <LinearRing>
              <tessellate>1</tessellate>
              <coordinates>
                -70.2858712,43.6710183,0
                -70.2836826,43.6696059,0
                -70.2818157,43.6709291,0
                -70.2848949,43.6717866,0
                -70.2858712,43.6710183,0
              </coordinates>
            </LinearRing>
          </outerBoundaryIs>
        </Polygon>
      </Placemark>
    </Folder>
    <Folder>
      <name>Directions from Start Area? to 415 Forest Ave, Portland, ME 04101, USA</name>
      <Placemark>
        <name>Directions from Start Area? to 415 Forest Ave, Portland, ME 04101, USA</name>
        <styleUrl>#line-1267FF-5000-nodesc</styleUrl>
        <LineString>
          <tessellate>1</tessellate>
          <coordinates>
            -70.27612,43.66172,0
            -70.276,43.66159,0
            -70.27598,43.66156,0
            -70.27678,43.6612,0
            -70.27687,43.66115,0
            -70.27699,43.66109,0
            -70.27719,43.66098,0
            -70.27729,43.66094,0
            -70.27746,43.66085,0
            -70.27761,43.66077,0
            -70.27769,43.66085,0
            -70.27784,43.66076,0
            -70.27786,43.66078,0
            -70.27815,43.66104,0
            -70.27824,43.66113,0
            -70.27834,43.66121,0
            -70.27845,43.66131,0
            -70.27854,43.66141,0
            -70.27867,43.66151,0
            -70.27871,43.66154,0
            -70.27886,43.66158,0
            -70.27889,43.66163,0
            -70.27882,43.66164,0
            -70.27881,43.66165,0
            -70.27881,43.66166,0
            -70.2788,43.66166,0
            -70.2788,43.66167,0
            -70.27879,43.66167,0
            -70.27875,43.66172,0
            -70.27876,43.66174,0
            -70.27871,43.66181,0
            -70.27859,43.66193,0
            -70.27851,43.66201,0
            -70.27847,43.66204,0
            -70.27823,43.6622,0
            -70.27783,43.66247,0
            -70.27776,43.66253,0
            -70.27763,43.66263,0
            -70.27747,43.66274,0
            -70.27745,43.66276,0
            -70.27712,43.66301,0
            -70.27702,43.66308,0
            -70.27664,43.66337,0
            -70.27658,43.66341,0
            -70.27622,43.66367,0
            -70.27612,43.66374,0
            -70.27566,43.66407,0
            -70.27553,43.66416,0
            -70.27539,43.66424,0
            -70.27533,43.66428,0
            -70.27527,43.66432,0
            -70.27516,43.6644,0
            -70.2751,43.66445,0
            -70.27502,43.66451,0
            -70.27494,43.66457,0
            -70.27482,43.66466,0
            -70.27471,43.66471,0
            -70.27481,43.66477,0
            -70.27457,43.66485,0
            -70.275,43.66512,0
            -70.27491,43.66519,0
            -70.27515,43.66535,0
          </coordinates>
        </LineString>
      </Placemark>
      <Placemark>
        <name>Start Area?</name>
        <styleUrl>#icon-1899-DB4436-nodesc</styleUrl>
        <Point>
          <coordinates>
            -70.2761214,43.6617204,0
          </coordinates>
        </Point>
      </Placemark>
      <Placemark>
        <name>415 Forest Ave, Portland, ME 04101, USA</name>
        <styleUrl>#icon-1899-DB4436-nodesc</styleUrl>
        <Point>
          <coordinates>
            -70.2751519,43.6653503,0
          </coordinates>
        </Point>
      </Placemark>
    </Folder>
    <Folder>
      <name>Untitled layer</name>
      <Placemark>
        <name>4 way stop</name>
        <styleUrl>#icon-1899-0288D1-nodesc</styleUrl>
        <Point>
          <coordinates>
            -70.2492496,43.6598558,0
          </coordinates>
        </Point>
      </Placemark>
      <Placemark>
        <name>4 way stop</name>
        <styleUrl>#icon-1899-0288D1-nodesc</styleUrl>
        <Point>
          <coordinates>
            -70.2481776,43.6606089,0
          </coordinates>
        </Point>
      </Placemark>
    </Folder>
    <Folder>
      <name>Directions from 300 Fore St, Portland, ME 04101, USA to 58 Fore St, Portland, ME 04101, USA</name>
      <Placemark>
        <name>Directions from 300 Fore St, Portland, ME 04101, USA to 58 Fore St, Portland, ME 04101, USA</name>
        <styleUrl>#line-1267FF-5000-nodesc</styleUrl>
        <LineString>
          <tessellate>1</tessellate>
          <coordinates>
            -70.25119,43.65778,0
            -70.25117,43.65784,0
            -70.25116,43.65788,0
            -70.25112,43.65801,0
            -70.25109,43.65815,0
            -70.25109,43.65819,0
            -70.25105,43.6584,0
            -70.25101,43.65855,0
            -70.251,43.6586,0
            -70.25096,43.65871,0
            -70.25095,43.65873,0
            -70.25085,43.65867,0
            -70.25065,43.65884,0
            -70.25079,43.65893,0
            -70.25047,43.65922,0
            -70.25035,43.65932,0
            -70.2503,43.65937,0
            -70.2502,43.65946,0
            -70.25008,43.65955,0
            -70.25001,43.6596,0
            -70.24996,43.65963,0
            -70.24983,43.65969,0
            -70.2497,43.65973,0
            -70.24956,43.65977,0
            -70.24926,43.65985,0
            -70.24912,43.65989,0
            -70.24887,43.66,0
            -70.24869,43.66009,0
            -70.24851,43.66021,0
            -70.24846,43.66026,0
            -70.24844,43.66028,0
            -70.24835,43.66037,0
            -70.2482,43.66055,0
            -70.24817,43.6606,0
            -70.24809,43.66073,0
            -70.24793,43.66099,0
            -70.24789,43.6611,0
            -70.24786,43.66115,0
            -70.2477,43.66141,0
            -70.24768,43.66146,0
            -70.2475,43.66171,0
            -70.24745,43.66177,0
            -70.24733,43.66188,0
            -70.24726,43.66194,0
            -70.24715,43.66201,0
            -70.24707,43.66205,0
            -70.24702,43.66207,0
            -70.24689,43.66212,0
            -70.24685,43.66214,0
            -70.24675,43.66217,0
            -70.24655,43.66223,0
            -70.24626,43.66229,0
            -70.24614,43.66231,0
            -70.24599,43.66232,0
            -70.24597,43.66224,0
            -70.24594,43.66215,0
            -70.24594,43.66214,0
            -70.24584,43.66201,0
            -70.24583,43.66199,0
            -70.24582,43.66199,0
            -70.24569,43.66185,0
          </coordinates>
        </LineString>
      </Placemark>
      <Placemark>
        <name>300 Fore St, Portland, ME 04101, USA</name>
        <styleUrl>#icon-1899-DB4436-nodesc</styleUrl>
        <Point>
          <coordinates>
            -70.2511891,43.6577772,0
          </coordinates>
        </Point>
      </Placemark>
      <Placemark>
        <name>58 Fore St, Portland, ME 04101, USA</name>
        <styleUrl>#icon-1899-DB4436-nodesc</styleUrl>
        <Point>
          <coordinates>
            -70.2456857,43.6618483,0
          </coordinates>
        </Point>
      </Placemark>
    </Folder>
    <Folder>
      <name>Directions from Home Base?  to Controlled?</name>
      <Placemark>
        <name>Directions from Home Base?  to Controlled?</name>
        <styleUrl>#line-1267FF-5000-nodesc</styleUrl>
        <LineString>
          <tessellate>1</tessellate>
          <coordinates>
            -70.25123,43.6577,0
            -70.25123,43.65769,0
            -70.25133,43.65756,0
            -70.2514,43.65748,0
            -70.25153,43.65741,0
            -70.25156,43.65738,0
            -70.2516,43.65728,0
            -70.25163,43.65726,0
            -70.25164,43.65725,0
            -70.2517,43.6572,0
            -70.25187,43.6571,0
            -70.25214,43.65692,0
            -70.25223,43.65687,0
            -70.25247,43.65674,0
            -70.25252,43.65669,0
            -70.25264,43.65666,0
            -70.25273,43.65664,0
            -70.25309,43.65654,0
            -70.25333,43.65647,0
            -70.2537,43.65627,0
            -70.25383,43.6562,0
            -70.25423,43.65602,0
            -70.2548,43.65577,0
            -70.2551,43.65567,0
            -70.25574,43.65543,0
            -70.25595,43.65534,0
            -70.25653,43.65507,0
            -70.25662,43.65503,0
            -70.25705,43.65485,0
            -70.25713,43.6548,0
            -70.25729,43.65494,0
            -70.25761,43.65521,0
            -70.25777,43.65535,0
            -70.25779,43.65537,0
            -70.25781,43.65538,0
            -70.25791,43.65547,0
            -70.25797,43.65553,0
            -70.25812,43.65567,0
          </coordinates>
        </LineString>
      </Placemark>
      <Placemark>
        <name>Home Base? </name>
        <styleUrl>#icon-1899-DB4436-nodesc</styleUrl>
        <Point>
          <coordinates>
            -70.2512262,43.657703,0
          </coordinates>
        </Point>
      </Placemark>
      <Placemark>
        <name>Controlled?</name>
        <styleUrl>#icon-1899-DB4436-nodesc</styleUrl>
        <Point>
          <coordinates>
            -70.2581223,43.6556658,0
          </coordinates>
        </Point>
      </Placemark>
    </Folder>
  </Document>
</kml>
